FLOCK 4H-15             
1 66718U 25276BE  26189.77749651  .00004227  00000+0  20038-3 0  9992
2 66718  97.4210 262.9109 0002806 311.3836  48.7157 15.19829378 33699
FLOCK 4H-16             
1 66719U 25276BF  26189.75133474  .00005287  00000+0  24793-3 0  9990
2 66719  97.4229 262.9917 0002755 293.4597  66.6349 15.20096986 33699
FLOCK 4H-18             
1 66721U 25276BH  26189.16478470  .00004261  00000+0  20080-3 0  9992
2 66721  97.4167 262.2340 0002639 332.2746  27.8348 15.20031324 33609
FLOCK 4H-19             
1 66722U 25276BJ  26189.76158393  .00004161  00000+0  18946-3 0  9995
2 66722  97.4170 263.2718 0001862 161.1495 198.9810 15.21238351 33010
FLOCK 4H-20             
1 66723U 25276BK  26189.76439357  .00004717  00000+0  21337-3 0  9993
2 66723  97.4210 263.3761 0002223 190.5363 169.5827 15.21391813 32976
FLOCK 4H-21             
1 66724U 25276BL  26189.72821596  .00004643  00000+0  21261-3 0  9994
2 66724  97.4174 263.1712 0002040 188.3175 171.8027 15.20980050 32966
FLOCK 4H-22             
1 66725U 25276BM  26189.77060280  .00004907  00000+0  22789-3 0  9994
2 66725  97.4164 262.9292 0001419 340.1079  20.0100 15.20464356 33702
FLOCK 4H-23             
1 66726U 25276BN  26189.75650168  .00005083  00000+0  23902-3 0  9997
2 66726  97.4233 262.9980 0002833 281.2835  78.8082 15.20016576 33695
FLOCK 4H-24             
1 66727U 25276BP  26189.74174945  .00005001  00000+0  23449-3 0  9997
2 66727  97.4229 263.0122 0002429 305.3410  54.7598 15.20124711 33695
FLOCK 4H-25             
1 66728U 25276BQ  26189.74632688  .00004584  00000+0  21049-3 0  9990
2 66728  97.4186 263.1802 0001551 130.0389 230.0983 15.20893169 32996
FLOCK 4H-26             
1 66729U 25276BR  26189.51065690  .00004234  00000+0  20061-3 0  9994
2 66729  97.4183 262.5734 0003269 300.9335  59.1579 15.19846307 33653
FLOCK 4H-27             
1 66730U 25276BS  26189.77619634  .00004472  00000+0  20649-3 0  9993
2 66730  97.4160 263.0666 0001253 125.0282 235.1071 15.20715004 33719
FLOCK 4H-29             
1 66732U 25276BU  26189.68829870  .00005044  00000+0  23740-3 0  9991
2 66732  97.4160 262.7308 0001967 325.8379  34.2729 15.19987864 33686
FLOCK 4H-30             
1 66733U 25276BV  26189.74655383  .00005083  00000+0  23838-3 0  9996
2 66733  97.4223 262.9891 0002735 301.7813  58.3156 15.20112602 33690
FLOCK 4H-31             
1 66734U 25276BW  26189.76658513  .00004605  00000+0  21766-3 0  9994
2 66734  97.4159 262.7761 0002298 317.4715  42.6341 15.19889464 33699
FLOCK 4H-32             
1 66735U 25276BX  26189.16251557  .00004154  00000+0  19602-3 0  9991
2 66735  97.4213 262.3720 0003078 300.8848  59.2084 15.20002196 33602
