{"fetched_at":"2026-07-09T18:16:44.960Z","source":"https://celestrak.org/NORAD/elements/gp.php?GROUP=planet&FORMAT=JSON","constellation":"superdove","records":[{"OBJECT_NAME":"FLOCK 4H-15","OBJECT_ID":"2025-276BE","EPOCH":"2026-07-08T18:39:35.698464","CLASSIFICATION_TYPE":"U","MEAN_MOTION":15.19829378,"ECCENTRICITY":0.0002806,"INCLINATION":97.421,"RA_OF_ASC_NODE":262.9109,"ARG_OF_PERICENTER":311.3836,"MEAN_ANOMALY":48.7157,"EPHEMERIS_TYPE":0,"NORAD_CAT_ID":66718,"ELEMENT_SET_NO":999,"REV_AT_EPOCH":3369,"BSTAR":0.00020038173,"MEAN_MOTION_DOT":0.00004227,"MEAN_MOTION_DDOT":0},{"OBJECT_NAME":"FLOCK 4H-16","OBJECT_ID":"2025-276BF","EPOCH":"2026-07-08T18:01:55.321536","CLASSIFICATION_TYPE":"U","MEAN_MOTION":15.20096986,"ECCENTRICITY":0.00027551,"INCLINATION":97.4229,"RA_OF_ASC_NODE":262.9917,"ARG_OF_PERICENTER":293.4597,"MEAN_ANOMALY":66.6349,"EPHEMERIS_TYPE":0,"NORAD_CAT_ID":66719,"ELEMENT_SET_NO":999,"REV_AT_EPOCH":3369,"BSTAR":0.00024793254,"MEAN_MOTION_DOT":0.00005287,"MEAN_MOTION_DDOT":0},{"OBJECT_NAME":"FLOCK 4H-18","OBJECT_ID":"2025-276BH","EPOCH":"2026-07-08T03:57:17.398080","CLASSIFICATION_TYPE":"U","MEAN_MOTION":15.20031324,"ECCENTRICITY":0.00026394,"INCLINATION":97.4167,"RA_OF_ASC_NODE":262.234,"ARG_OF_PERICENTER":332.2746,"MEAN_ANOMALY":27.8348,"EPHEMERIS_TYPE":0,"NORAD_CAT_ID":66721,"ELEMENT_SET_NO":999,"REV_AT_EPOCH":3360,"BSTAR":0.00020080111,"MEAN_MOTION_DOT":0.00004261,"MEAN_MOTION_DDOT":0},{"OBJECT_NAME":"FLOCK 4H-19","OBJECT_ID":"2025-276BJ","EPOCH":"2026-07-08T18:16:40.851552","CLASSIFICATION_TYPE":"U","MEAN_MOTION":15.21238351,"ECCENTRICITY":0.00018628,"INCLINATION":97.417,"RA_OF_ASC_NODE":263.2718,"ARG_OF_PERICENTER":161.1495,"MEAN_ANOMALY":198.981,"EPHEMERIS_TYPE":0,"NORAD_CAT_ID":66722,"ELEMENT_SET_NO":999,"REV_AT_EPOCH":3301,"BSTAR":0.00018946154,"MEAN_MOTION_DOT":0.00004161,"MEAN_MOTION_DDOT":0},{"OBJECT_NAME":"FLOCK 4H-20","OBJECT_ID":"2025-276BK","EPOCH":"2026-07-08T18:20:43.604448","CLASSIFICATION_TYPE":"U","MEAN_MOTION":15.21391813,"ECCENTRICITY":0.00022235,"INCLINATION":97.421,"RA_OF_ASC_NODE":263.3761,"ARG_OF_PERICENTER":190.5363,"MEAN_ANOMALY":169.5827,"EPHEMERIS_TYPE":0,"NORAD_CAT_ID":66723,"ELEMENT_SET_NO":999,"REV_AT_EPOCH":3297,"BSTAR":0.00021336995,"MEAN_MOTION_DOT":0.00004717,"MEAN_MOTION_DDOT":0},{"OBJECT_NAME":"FLOCK 4H-21","OBJECT_ID":"2025-276BL","EPOCH":"2026-07-08T17:28:37.858944","CLASSIFICATION_TYPE":"U","MEAN_MOTION":15.2098005,"ECCENTRICITY":0.00020401,"INCLINATION":97.4174,"RA_OF_ASC_NODE":263.1712,"ARG_OF_PERICENTER":188.3175,"MEAN_ANOMALY":171.8027,"EPHEMERIS_TYPE":0,"NORAD_CAT_ID":66724,"ELEMENT_SET_NO":999,"REV_AT_EPOCH":3296,"BSTAR":0.00021260513,"MEAN_MOTION_DOT":0.00004643,"MEAN_MOTION_DDOT":0},{"OBJECT_NAME":"FLOCK 4H-22","OBJECT_ID":"2025-276BM","EPOCH":"2026-07-08T18:29:40.081920","CLASSIFICATION_TYPE":"U","MEAN_MOTION":15.20464356,"ECCENTRICITY":0.00014192,"INCLINATION":97.4164,"RA_OF_ASC_NODE":262.9292,"ARG_OF_PERICENTER":340.1079,"MEAN_ANOMALY":20.01,"EPHEMERIS_TYPE":0,"NORAD_CAT_ID":66725,"ELEMENT_SET_NO":999,"REV_AT_EPOCH":3370,"BSTAR":0.00022789069,"MEAN_MOTION_DOT":0.00004907,"MEAN_MOTION_DDOT":0},{"OBJECT_NAME":"FLOCK 4H-23","OBJECT_ID":"2025-276BN","EPOCH":"2026-07-08T18:09:21.745152","CLASSIFICATION_TYPE":"U","MEAN_MOTION":15.20016576,"ECCENTRICITY":0.00028336,"INCLINATION":97.4233,"RA_OF_ASC_NODE":262.998,"ARG_OF_PERICENTER":281.2835,"MEAN_ANOMALY":78.8082,"EPHEMERIS_TYPE":0,"NORAD_CAT_ID":66726,"ELEMENT_SET_NO":999,"REV_AT_EPOCH":3369,"BSTAR":0.00023902445,"MEAN_MOTION_DOT":0.00005083,"MEAN_MOTION_DDOT":0},{"OBJECT_NAME":"FLOCK 4H-24","OBJECT_ID":"2025-276BP","EPOCH":"2026-07-08T17:48:07.152480","CLASSIFICATION_TYPE":"U","MEAN_MOTION":15.20124711,"ECCENTRICITY":0.00024295,"INCLINATION":97.4229,"RA_OF_ASC_NODE":263.0122,"ARG_OF_PERICENTER":305.341,"MEAN_ANOMALY":54.7598,"EPHEMERIS_TYPE":0,"NORAD_CAT_ID":66727,"ELEMENT_SET_NO":999,"REV_AT_EPOCH":3369,"BSTAR":0.00023449093,"MEAN_MOTION_DOT":0.00005001,"MEAN_MOTION_DDOT":0},{"OBJECT_NAME":"FLOCK 4H-25","OBJECT_ID":"2025-276BQ","EPOCH":"2026-07-08T17:54:42.642432","CLASSIFICATION_TYPE":"U","MEAN_MOTION":15.20893169,"ECCENTRICITY":0.00015514,"INCLINATION":97.4186,"RA_OF_ASC_NODE":263.1802,"ARG_OF_PERICENTER":130.0389,"MEAN_ANOMALY":230.0983,"EPHEMERIS_TYPE":0,"NORAD_CAT_ID":66728,"ELEMENT_SET_NO":999,"REV_AT_EPOCH":3299,"BSTAR":0.00021049316,"MEAN_MOTION_DOT":0.00004584,"MEAN_MOTION_DDOT":0},{"OBJECT_NAME":"FLOCK 4H-26","OBJECT_ID":"2025-276BR","EPOCH":"2026-07-08T12:15:20.756160","CLASSIFICATION_TYPE":"U","MEAN_MOTION":15.19846307,"ECCENTRICITY":0.00032699,"INCLINATION":97.4183,"RA_OF_ASC_NODE":262.5734,"ARG_OF_PERICENTER":300.9335,"MEAN_ANOMALY":59.1579,"EPHEMERIS_TYPE":0,"NORAD_CAT_ID":66729,"ELEMENT_SET_NO":999,"REV_AT_EPOCH":3365,"BSTAR":0.00020060718,"MEAN_MOTION_DOT":0.00004234,"MEAN_MOTION_DDOT":0},{"OBJECT_NAME":"FLOCK 4H-27","OBJECT_ID":"2025-276BS","EPOCH":"2026-07-08T18:37:43.363776","CLASSIFICATION_TYPE":"U","MEAN_MOTION":15.20715004,"ECCENTRICITY":0.0001253,"INCLINATION":97.416,"RA_OF_ASC_NODE":263.0666,"ARG_OF_PERICENTER":125.0282,"MEAN_ANOMALY":235.1071,"EPHEMERIS_TYPE":0,"NORAD_CAT_ID":66730,"ELEMENT_SET_NO":999,"REV_AT_EPOCH":3371,"BSTAR":0.000206489,"MEAN_MOTION_DOT":0.00004472,"MEAN_MOTION_DDOT":0},{"OBJECT_NAME":"FLOCK 4H-29","OBJECT_ID":"2025-276BU","EPOCH":"2026-07-08T16:31:09.007680","CLASSIFICATION_TYPE":"U","MEAN_MOTION":15.19987864,"ECCENTRICITY":0.00019675,"INCLINATION":97.416,"RA_OF_ASC_NODE":262.7308,"ARG_OF_PERICENTER":325.8379,"MEAN_ANOMALY":34.2729,"EPHEMERIS_TYPE":0,"NORAD_CAT_ID":66732,"ELEMENT_SET_NO":999,"REV_AT_EPOCH":3368,"BSTAR":0.00023740028,"MEAN_MOTION_DOT":0.00005044,"MEAN_MOTION_DDOT":0},{"OBJECT_NAME":"FLOCK 4H-30","OBJECT_ID":"2025-276BV","EPOCH":"2026-07-08T17:55:02.250912","CLASSIFICATION_TYPE":"U","MEAN_MOTION":15.20112602,"ECCENTRICITY":0.00027351,"INCLINATION":97.4223,"RA_OF_ASC_NODE":262.9891,"ARG_OF_PERICENTER":301.7813,"MEAN_ANOMALY":58.3156,"EPHEMERIS_TYPE":0,"NORAD_CAT_ID":66733,"ELEMENT_SET_NO":999,"REV_AT_EPOCH":3369,"BSTAR":0.00023837911,"MEAN_MOTION_DOT":0.00005083,"MEAN_MOTION_DDOT":0},{"OBJECT_NAME":"FLOCK 4H-31","OBJECT_ID":"2025-276BW","EPOCH":"2026-07-08T18:23:52.955232","CLASSIFICATION_TYPE":"U","MEAN_MOTION":15.19889464,"ECCENTRICITY":0.00022988,"INCLINATION":97.4159,"RA_OF_ASC_NODE":262.7761,"ARG_OF_PERICENTER":317.4715,"MEAN_ANOMALY":42.6341,"EPHEMERIS_TYPE":0,"NORAD_CAT_ID":66734,"ELEMENT_SET_NO":999,"REV_AT_EPOCH":3369,"BSTAR":0.00021765749,"MEAN_MOTION_DOT":0.00004605,"MEAN_MOTION_DDOT":0},{"OBJECT_NAME":"FLOCK 4H-32","OBJECT_ID":"2025-276BX","EPOCH":"2026-07-08T03:54:01.345248","CLASSIFICATION_TYPE":"U","MEAN_MOTION":15.20002196,"ECCENTRICITY":0.00030785,"INCLINATION":97.4213,"RA_OF_ASC_NODE":262.372,"ARG_OF_PERICENTER":300.8848,"MEAN_ANOMALY":59.2084,"EPHEMERIS_TYPE":0,"NORAD_CAT_ID":66735,"ELEMENT_SET_NO":999,"REV_AT_EPOCH":3360,"BSTAR":0.00019601893,"MEAN_MOTION_DOT":0.00004154,"MEAN_MOTION_DDOT":0}]}
